UMBRA-07                
1 58297U 23174AT  26198.60047266  .00004046  00000+0  25528-3 0  9993
2 58297  97.3772 253.2193 0002018  12.6313 347.4966 15.09642765148007
TIANMU-1 14             
1 58648U 23205D   26198.90563858  .00002974  00000+0  11442-3 0  9999
2 58648  97.3394 219.1700 0006703 209.0124 151.0743 15.27148317142199
TIANMU-1 19             
1 58660U 23208A   26198.92426701  .00004537  00000+0  14940-3 0  9996
2 58660  97.4530 315.3944 0004873 188.2495 171.8668 15.32000728142038
TIANMU-1 20             
1 58661U 23208B   26198.93822697  .00004496  00000+0  14266-3 0  9997
2 58661  97.4473 316.0758 0006602 201.5683 158.5282 15.33189837142131
TIANMU-1 21             
1 58662U 23208C   26198.94463108  .00005621  00000+0  16480-3 0  9998
2 58662  97.4534 318.8981 0006958 194.1072 165.9978 15.35582819142280
TIANMU-1 22             
1 58663U 23208D   26198.91677375  .00004136  00000+0  13879-3 0  9998
2 58663  97.4526 315.2962 0003003 206.4085 153.7004 15.31449840142031
TIANMU-1 15             
1 58700U 24004A   26198.96518737  .00002938  00000+0  11391-3 0  9991
2 58700  97.4671  25.1560 0006271 216.9715 143.1092 15.26930450140473
TIANMU-1 16             
1 58701U 24004B   26198.95446608  .00002801  00000+0  10842-3 0  9997
2 58701  97.4620  24.3603 0004617 232.7060 127.3759 15.27033530140476
TIANMU-1 17             
1 58702U 24004C   26198.93995220  .00002834  00000+0  10966-3 0  9998
2 58702  97.4647  24.8420 0004052 238.7841 121.3001 15.27031256140460
TIANMU-1 18             
1 58703U 24004D   26198.98172558  .00002873  00000+0  11143-3 0  9996
2 58703  97.4664  25.1467 0003991 212.3877 147.7117 15.26946336140477
